satname,norad_id,inclination_deg,eccentricity,mean_motion_rev_per_day,perigee_km,apogee_km,l1,l2
STARLINK-1454,45671,53.0516,0.0007054,15.47324787,419.75708029856105,429.35431915933805,1 45671U 20035Q   26050.55612474  .00071730  00000+0  13768-2 0  9994,2 45671  53.0516 139.7393 0007054 348.8961  11.1889 15.47324787316102
STARLINK-1456,45673,53.0502,0.0001768,15.46006654,427.2184240762308,429.62522327628176,1 45673U 20035S   26050.49196406  .00141410  00000+0  28087-2 0  9994,2 45673  53.0502 133.5583 0001768 219.1272 140.9606 15.46006654316201
STARLINK-1457,45674,53.0468,0.0009596,15.74020532,340.9659722826,353.87366092502543,1 45674U 20035T   26050.58336806  .00239455  00000+0  16012-2 0  9997,2 45674  53.0468 112.7790 0009596 359.9677 288.8843 15.74020532  5900
STARLINK-1458,45675,53.0538,0.0004599,15.4057185,441.28277614874423,447.5581645099528,1 45675U 20035U   26050.52842762  .00072446  00000+0  17478-2 0  9997,2 45675  53.0538 141.5765 0004599  17.5550 342.5612 15.40571850316056
STARLINK-1460,45676,53.0707,3.42e-05,15.10985505,532.95683213346,533.4295671191148,1 45676U 20035V   26050.58336806  .00036368  00000+0  21602-2 0  9998,2 45676  53.0707 147.8515 0000342  12.0381 348.9478 15.10985505  5789
STARLINK-1392,45677,53.0558,0.0004153,15.07070595,542.2817989751184,548.0322870072268,1 45677U 20035W   26050.53295008  .00211891  00000+0  13574-1 0  9996,2 45677  53.0558 148.1221 0004153 157.4656 202.6516 15.07070595315991
STARLINK-1394,45679,53.0509,0.0001945,15.44516279,431.4750342980524,434.12448869827585,1 45679U 20035Y   26050.54085595  .00252537  00000+0  51947-2 0  9996,2 45679  53.0509 123.4098 0001945 238.6155 121.4661 15.44516279316343
STARLINK-1402,45685,53.0486,0.0001879,15.42098305,438.636382603996,441.198607483233,1 45685U 20035AE  26050.39269394  .00065985  00000+0  15157-2 0  9999,2 45685  53.0486 110.3134 0001879 217.0628 143.0247 15.42098305316525
STARLINK-1404,45686,53.1596,0.0001426,15.30195131,474.2523173360132,476.20689749244775,1 45686U 20035AF  26050.53836922  .00001503  00000+0  62875-4 0  9990,2 45686  53.1596 134.0102 0001426  78.8337 281.2824 15.30195131316196
STARLINK-1413,45689,53.1614,0.0001468,15.30196015,474.2208941063527,476.23304176733836,1 45689U 20035AJ  26050.60998555  .00001369  00000+0  58341-4 0  9995,2 45689  53.1614 133.5576 0001468  82.7392 277.3775 15.30196015316126
STARLINK-1417,45693,53.0505,0.0003651,15.1147353,529.1826479217852,534.2282148651884,1 45693U 20035AN  26050.61803643  .00025115  00000+0  14793-2 0  9990,2 45693  53.0505 136.1447 0003651 183.2352 176.8616 15.11473530316164
STARLINK-1420,45695,53.0541,0.0003121,15.48175717,419.9404682061413,424.1851529278965,1 45695U 20035AQ  26050.57129163  .00030723  00000+0  58068-3 0  9990,2 45695  53.0541 109.4849 0003121  40.4207 319.7031 15.48175717316547
STARLINK-1422,45696,53.1605,0.0001454,15.30196979,474.2276108931983,476.22056829805297,1 45696U 20035AR  26050.55204358 -.00000449  00000+0 -30159-5 0  9996,2 45696  53.1605 133.8303 0001454  75.2767 284.8395 15.30196979316190
STARLINK-1351,45697,53.0536,0.0001881,15.49527019,416.83034425826645,419.3870918974062,1 45697U 20035AS  26050.47818422  .00021557  00000+0  39154-3 0  9994,2 45697  53.0536 109.0822 0001881  57.6641 302.4549 15.49527019316543
STARLINK-1398,45699,53.0401,0.0005311,15.84732855,313.5212295082438,320.6328858803254,1 45699U 20035AU  26050.58336806  .00263052  00000+0  10808-2 0  9991,2 45699  53.0401  31.3584 0005311  55.5005 226.6421 15.84732855  5929
STARLINK-1400,45700,53.0522,0.0006095,15.47132203,420.97362669592076,429.2667972373083,1 45700U 20035AV  26050.61847317  .00073535  00000+0  14207-2 0  9994,2 45700  53.0522 109.4973 0006095  24.4735 335.6560 15.47132203316548
STARLINK-1403,45701,53.0547,0.0001381,15.06417517,546.2014881546902,548.1142545981647,1 45701U 20035AW  26050.56182009  .00002393  00000+0  17942-3 0  9993,2 45701  53.0547 117.9996 0001381  93.0871 267.0276 15.06417517316418
STARLINK-1407,45703,53.0357,0.0012732,15.56464064,389.27286191260464,406.52736281552825,1 45703U 20035AY  26050.41323840  .00056766  00000+0  78648-3 0  9992,2 45703  53.0357  44.5148 0012732  37.1484 323.0406 15.56464064317440
STARLINK-1411,45706,53.045,0.0005188,15.58421952,388.7111801153678,395.7361063187709,1 45706U 20035BB  26050.37206661  .00071960  00000+0  92590-3 0  9996,2 45706  53.0450  70.6863 0005188  49.4047 310.7415 15.58421952317061
STARLINK-1423,45710,53.052,0.0005057,15.49135776,415.8155166735987,422.69039687588065,1 45710U 20035BF  26050.54717013  .00077925  00000+0  14031-2 0  9998,2 45710  53.0520 109.1764 0005057  33.3511 326.7815 15.49135776316533
STARLINK-1433,45711,53.0513,0.000575,15.51249491,409.17190794557064,416.9818038798694,1 45711U 20035BG  26050.59619996  .00076104  00000+0  12719-2 0  9994,2 45711  53.0513 108.2549 0005750  29.8408 330.2927 15.51249491316551
STARLINK-1434,45712,53.0523,0.0003463,15.24839784,488.8876992511823,493.64544816633315,1 45712U 20035BH  26050.55421281  .00043448  00000+0  17300-2 0  9995,2 45712  53.0523 103.9039 0003463  20.2859 339.8275 15.24839784316622
STARLINK-1465,45731,53.0546,0.0004316,15.47027469,422.49084454639706,428.36368121811756,1 45731U 20038B   26050.11966622  .00069700  00000+0  13530-2 0  9994,2 45731  53.0546 312.0444 0004316 141.8589 218.2724 15.47027469313506
STARLINK-1471,45735,53.0461,0.0003703,15.47730243,420.848991570444,425.8861858688497,1 45735U 20038F   26049.73302272  .00024041  00000+0  46365-3 0  9991,2 45735  53.0461 232.7605 0003703 154.3778 205.7413 15.47730243314598
STARLINK-1474,45738,53.016,0.0009182,16.18666265,217.11425486685766,229.23690528891257,1 45738U 20038J   26050.80871307  .01350781  11792-4  74871-3 0  9996,2 45738  53.0160 153.3430 0009182 338.5759  21.4893 16.18666265315781
STARLINK-1480,45741,53.0514,0.000977,15.45400795,423.54892398213906,436.8524157890961,1 45741U 20038M   26050.11984508  .00080071  00000+0  16380-2 0  9998,2 45741  53.0514 305.9037 0009770 116.9710 243.2295 15.45400795313606
STARLINK-1500,45744,53.0361,0.0003719,15.33688458,462.2740152767874,467.36380588307657,1 45744U 20038Q   26050.04649699  .00021058  00000+0  64684-3 0  9993,2 45744  53.0361 280.1274 0003719 158.8543 201.2612 15.33688458313958
STARLINK-1504,45746,53.023,0.0003458,15.51790168,409.15143828744567,413.84715074873384,1 45746U 20038S   26049.82416521  .00026808  00000+0  44733-3 0  9996,2 45746  53.0230 233.1018 0003458 136.7176 223.4104 15.51790168314580
STARLINK-1506,45747,53.0766,0.0003935,15.25620087,486.2218739641776,491.6262510203587,1 45747U 20038T   26050.05752378  .00020943  00000+0  82399-3 0  9991,2 45747  53.0766 288.5037 0003935 165.8384 194.2725 15.25620087313849
STARLINK-1464,45751,53.0515,0.00041,15.42163999,436.9285444096722,442.51919032091155,1 45751U 20038X   26049.97642192  .00041073  00000+0  94786-3 0  9997,2 45751  53.0515 293.4618 0004100 147.8983 212.2272 15.42163999313768
STARLINK-1477,45754,53.0504,0.0002131,15.13221056,524.9132184835953,527.8559255775945,1 45754U 20038AA  26050.08018217  .00026684  00000+0  14961-2 0  9996,2 45754  53.0504 297.4676 0002131  75.2725 284.8503 15.13221056313711
STARLINK-1478,45755,53.0533,0.000742,15.51412676,407.56189869133505,417.63935332833444,1 45755U 20038AB  26049.97093138  .00052218  00000+0  87235-3 0  9995,2 45755  53.0533 288.1136 0007420 141.9147 218.2388 15.51412676313823
STARLINK-1484,45756,53.003,0.0005602,15.90306087,297.6837521529378,305.16753413831793,1 45756U 20038AC  26050.58336806  .00221155  28979-4  71963-3 0  9996,2 45756  53.0030 149.6645 0005602 345.9361 225.6918 15.90306087  5949
STARLINK-1493,45759,53.0528,0.0002323,15.44500366,431.2643520324,434.4287349867136,1 45759U 20038AF  26050.62062275  .00070358  00000+0  14893-2 0  9995,2 45759  53.0528 290.8321 0002323 146.1976 213.9178 15.44500366313848
STARLINK-1494,45760,53.0479,0.0001814,15.70097868,357.39500198576206,359.83909635480086,1 45760U 20038AG  26050.50257070  .00073596  00000+0  59719-3 0  9997,2 45760  53.0479 241.7837 0001814 249.6611 110.4211 15.70097868314534
STARLINK-1502,45764,53.053,0.0001421,15.44626517,431.5079110709148,433.44348720000926,1 45764U 20038AL  26050.58336806  .00081165  00000+0  17070-2 0  9998,2 45764  53.0530 292.3487 0001421  88.2909 284.2771 15.44626517  5853
STARLINK-1470,45772,53.0458,0.0002505,15.26288696,485.19875422112,488.63814700187686,1 45772U 20038AU  26050.61063993  .00042263  00000+0  16119-2 0  9994,2 45772  53.0458 258.1137 0002505 121.0772 239.0472 15.26288696314313
STARLINK-1482,45773,53.1527,0.0001664,15.29349008,476.61633549936596,478.8979770745782,1 45773U 20038AV  26050.06607593  .00019266  00000+0  67837-3 0  9995,2 45773  53.1527 277.5212 0001664  89.9802 270.1389 15.29349008313996
STARLINK-1496,45780,53.0511,0.0007717,15.44831843,426.6169289145846,437.12749713396715,1 45780U 20038BC  26050.60983270  .00077909  00000+0  16267-2 0  9990,2 45780  53.0511 264.0990 0007717 137.5367 222.6237 15.44831843314211
STARLINK-1513,45786,53.1543,0.000125,15.2935864,476.8713871744776,478.5853535170645,1 45786U 20038BJ  26050.01027462  .00005994  00000+0  21985-3 0  9992,2 45786  53.1543 277.9115 0001250  87.6801 272.4342 15.29358640313984
STARLINK-1522,46027,53.0551,0.0001329,15.06402587,546.2832513976036,548.1240069368368,1 46027U 20055A   26050.58301930  .00000709  00000+0  66468-4 0  9992,2 46027  53.0551 207.9003 0001329  93.6321 266.4820 15.06402587306151
STARLINK-1523,46028,53.0556,0.0001303,15.06398354,546.3142291213726,548.1189762702343,1 46028U 20055B   26050.46507493  .00001108  00000+0  93234-4 0  9997,2 46028  53.0556 208.4299 0001303  97.9144 262.1993 15.06398354306152
STARLINK-1526,46029,53.0562,0.0001342,15.06403602,546.2711380540959,548.1298986440206,1 46029U 20055C   26050.45769865  .00000990  00000+0  85363-4 0  9992,2 46029  53.0562 208.4644 0001342  88.7399 271.3744 15.06403602306145
